[{"OBJECT_NAME":"IRIDIUM 138","OBJECT_ID":"2017-083B","EPOCH":"2026-03-09T21:30:43.184160","MEAN_MOTION":14.34218949,"ECCENTRICITY":0.00023523,"INCLINATION":86.4035,"RA_OF_ASC_NODE":3.1874,"ARG_OF_PERICENTER":77.6293,"MEAN_ANOMALY":282.5166,"EPHEMERIS_TYPE":0,"CLASSIFICATION_TYPE":"U","NORAD_CAT_ID":43071,"ELEMENT_SET_NO":999,"REV_AT_EPOCH":42990,"BSTAR":0.00011242147,"MEAN_MOTION_DOT":3.35e-6,"MEAN_MOTION_DDOT":0},{"OBJECT_NAME":"CZ-4B DEB","OBJECT_ID":"2002-024K","EPOCH":"2026-03-08T08:05:39.349536","MEAN_MOTION":14.18205941,"ECCENTRICITY":0.01206931,"INCLINATION":98.9018,"RA_OF_ASC_NODE":114.1181,"ARG_OF_PERICENTER":64.6533,"MEAN_ANOMALY":296.7084,"EPHEMERIS_TYPE":0,"CLASSIFICATION_TYPE":"U","NORAD_CAT_ID":35405,"ELEMENT_SET_NO":999,"REV_AT_EPOCH":22249,"BSTAR":0.00048336044,"MEAN_MOTION_DOT":1.024e-5,"MEAN_MOTION_DDOT":0}]
